{
 "generated_at": "2026-07-20T08:05:52Z",
 "sources": [
  {
   "name": "CelesTrak",
   "url": "https://celestrak.org/NORAD/elements/",
   "license": "frei verfügbar; Attribution. Ursprünglich USSPACECOM/Space-Track."
  },
  {
   "name": "GCAT (J. McDowell, planet4589.org)",
   "url": "https://planet4589.org/space/gcat/",
   "license": "CC-BY 4.0"
  }
 ],
 "satellites": [
  {
   "norad": 42987,
   "name": "SKYSAT-C11",
   "intl": "2017-068A",
   "group": "resource",
   "gcat": {
    "class": "B",
    "category": "IMG",
    "owner": "PLABST",
    "state": "US"
   },
   "omm": {
    "OBJECT_NAME": "SKYSAT-C11",
    "OBJECT_ID": "2017-068A",
    "EPOCH": "2026-07-19T09:54:24.586848",
    "MEAN_MOTION": 15.59473968,
    "ECCENTRICITY": 0.00014208,
    "INCLINATION": 97.439,
    "RA_OF_ASC_NODE": 350.6929,
    "ARG_OF_PERICENTER": 153.6625,
    "MEAN_ANOMALY": 206.4704,
    "EPHEMERIS_TYPE": 0,
    "CLASSIFICATION_TYPE": "U",
    "NORAD_CAT_ID": 42987,
    "ELEMENT_SET_NO": 999,
    "REV_AT_EPOCH": 48826,
    "BSTAR": 0.00021759549,
    "MEAN_MOTION_DOT": 0.00017128,
    "MEAN_MOTION_DDOT": 0
   }
  },
  {
   "norad": 41773,
   "name": "SKYSAT-C2",
   "intl": "2016-058D",
   "group": "resource",
   "gcat": {
    "class": "B",
    "category": "IMG",
    "owner": "TBELLA",
    "state": "US"
   },
   "omm": {
    "OBJECT_NAME": "SKYSAT-C2",
    "OBJECT_ID": "2016-058D",
    "EPOCH": "2026-07-19T01:09:40.843296",
    "MEAN_MOTION": 15.42733343,
    "ECCENTRICITY": 0.00009173,
    "INCLINATION": 97.0161,
    "RA_OF_ASC_NODE": 220.9571,
    "ARG_OF_PERICENTER": 329.4128,
    "MEAN_ANOMALY": 30.7067,
    "EPHEMERIS_TYPE": 0,
    "CLASSIFICATION_TYPE": "U",
    "NORAD_CAT_ID": 41773,
    "ELEMENT_SET_NO": 999,
    "REV_AT_EPOCH": 54996,
    "BSTAR": 0.00015928038,
    "MEAN_MOTION_DOT": 0.00006875,
    "MEAN_MOTION_DDOT": 0
   }
  },
  {
   "norad": 41774,
   "name": "SKYSAT-C3",
   "intl": "2016-058E",
   "group": "resource",
   "gcat": {
    "class": "B",
    "category": "IMG",
    "owner": "TBELLA",
    "state": "US"
   },
   "omm": {
    "OBJECT_NAME": "SKYSAT-C3",
    "OBJECT_ID": "2016-058E",
    "EPOCH": "2026-07-19T13:10:50.824704",
    "MEAN_MOTION": 15.53830199,
    "ECCENTRICITY": 0.0002738,
    "INCLINATION": 96.8996,
    "RA_OF_ASC_NODE": 230.177,
    "ARG_OF_PERICENTER": 128.568,
    "MEAN_ANOMALY": 231.582,
    "EPHEMERIS_TYPE": 0,
    "CLASSIFICATION_TYPE": "U",
    "NORAD_CAT_ID": 41774,
    "ELEMENT_SET_NO": 999,
    "REV_AT_EPOCH": 55113,
    "BSTAR": 0.00021226,
    "MEAN_MOTION_DOT": 0.00013552,
    "MEAN_MOTION_DDOT": 0
   }
  },
  {
   "norad": 41771,
   "name": "SKYSAT-C4",
   "intl": "2016-058B",
   "group": "resource",
   "gcat": {
    "class": "B",
    "category": "IMG",
    "owner": "TBELLA",
    "state": "US"
   },
   "omm": {
    "OBJECT_NAME": "SKYSAT-C4",
    "OBJECT_ID": "2016-058B",
    "EPOCH": "2026-07-19T07:23:02.142816",
    "MEAN_MOTION": 15.49519373,
    "ECCENTRICITY": 0.00035402,
    "INCLINATION": 96.917,
    "RA_OF_ASC_NODE": 220.754,
    "ARG_OF_PERICENTER": 112.6543,
    "MEAN_ANOMALY": 247.5084,
    "EPHEMERIS_TYPE": 0,
    "CLASSIFICATION_TYPE": "U",
    "NORAD_CAT_ID": 41771,
    "ELEMENT_SET_NO": 999,
    "REV_AT_EPOCH": 55044,
    "BSTAR": 0.00017512998,
    "MEAN_MOTION_DOT": 0.00009565,
    "MEAN_MOTION_DDOT": 0
   }
  },
  {
   "norad": 41772,
   "name": "SKYSAT-C5",
   "intl": "2016-058C",
   "group": "resource",
   "gcat": {
    "class": "B",
    "category": "IMG",
    "owner": "TBELLA",
    "state": "US"
   },
   "omm": {
    "OBJECT_NAME": "SKYSAT-C5",
    "OBJECT_ID": "2016-058C",
    "EPOCH": "2026-07-19T13:58:52.561056",
    "MEAN_MOTION": 15.33753019,
    "ECCENTRICITY": 0.000302,
    "INCLINATION": 97.0451,
    "RA_OF_ASC_NODE": 239.7652,
    "ARG_OF_PERICENTER": 149.7638,
    "MEAN_ANOMALY": 210.3781,
    "EPHEMERIS_TYPE": 0,
    "CLASSIFICATION_TYPE": "U",
    "NORAD_CAT_ID": 41772,
    "ELEMENT_SET_NO": 999,
    "REV_AT_EPOCH": 54871,
    "BSTAR": 0.0001139,
    "MEAN_MOTION_DOT": 0.00003644,
    "MEAN_MOTION_DDOT": 0
   }
  },
  {
   "norad": 42992,
   "name": "SKYSAT-C6",
   "intl": "2017-068F",
   "group": "resource",
   "gcat": {
    "class": "B",
    "category": "IMG",
    "owner": "PLABST",
    "state": "US"
   },
   "omm": {
    "OBJECT_NAME": "SKYSAT-C6",
    "OBJECT_ID": "2017-068F",
    "EPOCH": "2026-07-19T19:46:20.932896",
    "MEAN_MOTION": 15.34215968,
    "ECCENTRICITY": 0.0004985,
    "INCLINATION": 97.4612,
    "RA_OF_ASC_NODE": 338.7587,
    "ARG_OF_PERICENTER": 77.331,
    "MEAN_ANOMALY": 282.8489,
    "EPHEMERIS_TYPE": 0,
    "CLASSIFICATION_TYPE": "U",
    "NORAD_CAT_ID": 42992,
    "ELEMENT_SET_NO": 999,
    "REV_AT_EPOCH": 48732,
    "BSTAR": 0.00015267,
    "MEAN_MOTION_DOT": 0.00004976,
    "MEAN_MOTION_DDOT": 0
   }
  },
  {
   "norad": 42991,
   "name": "SKYSAT-C7",
   "intl": "2017-068E",
   "group": "resource",
   "gcat": {
    "class": "B",
    "category": "IMG",
    "owner": "PLABST",
    "state": "US"
   },
   "omm": {
    "OBJECT_NAME": "SKYSAT-C7",
    "OBJECT_ID": "2017-068E",
    "EPOCH": "2026-07-19T08:21:56.823840",
    "MEAN_MOTION": 15.37488793,
    "ECCENTRICITY": 0.00053212,
    "INCLINATION": 97.4574,
    "RA_OF_ASC_NODE": 338.4439,
    "ARG_OF_PERICENTER": 7.1365,
    "MEAN_ANOMALY": 352.9954,
    "EPHEMERIS_TYPE": 0,
    "CLASSIFICATION_TYPE": "U",
    "NORAD_CAT_ID": 42991,
    "ELEMENT_SET_NO": 999,
    "REV_AT_EPOCH": 48731,
    "BSTAR": 0.00015041426,
    "MEAN_MOTION_DOT": 0.00005447,
    "MEAN_MOTION_DDOT": 0
   }
  },
  {
   "norad": 42990,
   "name": "SKYSAT-C8",
   "intl": "2017-068D",
   "group": "resource",
   "gcat": {
    "class": "B",
    "category": "IMG",
    "owner": "PLABST",
    "state": "US"
   },
   "omm": {
    "OBJECT_NAME": "SKYSAT-C8",
    "OBJECT_ID": "2017-068D",
    "EPOCH": "2026-07-19T08:29:42.047232",
    "MEAN_MOTION": 15.3753912,
    "ECCENTRICITY": 0.0001274,
    "INCLINATION": 97.4564,
    "RA_OF_ASC_NODE": 337.4574,
    "ARG_OF_PERICENTER": 105.5249,
    "MEAN_ANOMALY": 254.6137,
    "EPHEMERIS_TYPE": 0,
    "CLASSIFICATION_TYPE": "U",
    "NORAD_CAT_ID": 42990,
    "ELEMENT_SET_NO": 999,
    "REV_AT_EPOCH": 48725,
    "BSTAR": 0.00015124,
    "MEAN_MOTION_DOT": 0.00005485,
    "MEAN_MOTION_DDOT": 0
   }
  },
  {
   "norad": 42989,
   "name": "SKYSAT-C9",
   "intl": "2017-068C",
   "group": "resource",
   "gcat": {
    "class": "B",
    "category": "IMG",
    "owner": "PLABST",
    "state": "US"
   },
   "omm": {
    "OBJECT_NAME": "SKYSAT-C9",
    "OBJECT_ID": "2017-068C",
    "EPOCH": "2026-07-19T19:35:26.782080",
    "MEAN_MOTION": 15.42280897,
    "ECCENTRICITY": 0.0008235,
    "INCLINATION": 97.4468,
    "RA_OF_ASC_NODE": 339.2528,
    "ARG_OF_PERICENTER": 29.6633,
    "MEAN_ANOMALY": 330.508,
    "EPHEMERIS_TYPE": 0,
    "CLASSIFICATION_TYPE": "U",
    "NORAD_CAT_ID": 42989,
    "ELEMENT_SET_NO": 999,
    "REV_AT_EPOCH": 48778,
    "BSTAR": 0.00016403,
    "MEAN_MOTION_DOT": 0.00006975,
    "MEAN_MOTION_DDOT": 0
   }
  },
  {
   "norad": 40376,
   "name": "SMAP",
   "intl": "2015-003A",
   "group": "resource",
   "gcat": {
    "class": "C",
    "category": "EOSCI",
    "owner": "JPL",
    "state": "US"
   },
   "omm": {
    "OBJECT_NAME": "SMAP",
    "OBJECT_ID": "2015-003A",
    "EPOCH": "2026-07-19T19:57:52.596000",
    "MEAN_MOTION": 14.63391249,
    "ECCENTRICITY": 0.000163,
    "INCLINATION": 98.1285,
    "RA_OF_ASC_NODE": 207.4655,
    "ARG_OF_PERICENTER": 93.3256,
    "MEAN_ANOMALY": 266.8132,
    "EPHEMERIS_TYPE": 0,
    "CLASSIFICATION_TYPE": "U",
    "NORAD_CAT_ID": 40376,
    "ELEMENT_SET_NO": 999,
    "REV_AT_EPOCH": 61239,
    "BSTAR": 0.000042296,
    "MEAN_MOTION_DOT": 0.00000172,
    "MEAN_MOTION_DDOT": 0
   }
  }
 ]
}
